KUIPER-00157            
1 65970U 25228Z   26008.50002314 -.01252922  00000+0 -43794-1 0  9999
2 65970  51.8805 251.4874 0006108 125.3792  69.6059 15.31783208  4648
KUIPER-00144            
1 67133U 25301A   26008.51886487  .00048626  00000+0  13664-2 0  9991
2 67133  51.8704 355.9763 0006453 159.6399 200.4846 15.36022087  4489
KUIPER-00164            
1 67134U 25301B   26008.44373689  .00039577  00000+0  10969-2 0  9999
2 67134  51.8725 356.2265 0002893 137.9222 222.1987 15.36560888  4654
KUIPER-00175            
1 67135U 25301C   26008.43618457  .00023798  00000+0  65283-3 0  9992
2 67135  51.8744 356.1735 0002857  92.8246 267.3067 15.37145000  4546
KUIPER-00179            
1 67136U 25301D   26008.44159745  .00019936  00000+0  55672-3 0  9994
2 67136  51.8737 356.2110 0003379 120.0027 240.1295 15.36702725  4654
KUIPER-00181            
1 67137U 25301E   26008.46975002 -.00016838  00000+0 -48103-3 0  9990
2 67137  51.8656 356.3847 0010174 185.7090 174.3781 15.34769935  4632
KUIPER-00183            
1 67138U 25301F   26008.40912903  .00020676  00000+0  61439-3 0  9996
2 67138  51.8633 356.7239 0011133 187.3332 172.7492 15.34677627  4637
KUIPER-00184            
1 67139U 25301G   26008.46882898  .00030943  00000+0  90593-3 0  9993
2 67139  51.8643 356.3770 0009203 184.7869 175.3030 15.34930235  4753
